{"type":"FeatureCollection","source":"District boundaries: github.com/chingchai/OpenGISData-Thailand · zone = majority MNM-AREA of 2026 jobs inside each district","features":[{"type":"Feature","properties":{"province":"สมุทรปราการ","district":"พระสมุทรเจดีย์","district_en":"Phra Samut Chedi","zone":"MNM-AREA3 (Bangkok-TLC)","cx":100.51257,"cy":13.55638},"geometry":{"type":"Polygon","coordinates":[[[100.58869546805136,13.589602136130626],[100.58276711822099,13.581183632199226],[100.5779346161034,13.55971771373478],[100.59042920671406,13.543007380161354],[100.57852594742201,13.521009957429207],[100.55805577242236,13.506322585599179],[100.50153299970633,13.500714947176235],[100.49056670482413,13.494941878970119],[100.46559284727003,13.492061831869277],[100.45785745755596,13.48698924474914],[100.45411039345409,13.502411402106844],[100.44633673628726,13.540703780034614],[100.4445194267192,13.553037784221637],[100.44645779934402,13.586279375121611],[100.45199725933182,13.599079080633077],[100.45242845832826,13.60159413265178],[100.45473185559214,13.605266634812635],[100.46676695802175,13.603751941318587],[100.46636286722804,13.601537340360908],[100.46705407888712,13.59728574887734],[100.46994347935474,13.593490137259831],[100.47348166354696,13.595343839974147],[100.47335318142758,13.597918640566638],[100.47553022354913,13.601851562758066],[100.47736292571919,13.602311889297805],[100.47733601741335,13.599183203223717],[100.48111730454977,13.597193499267963],[100.48183333263454,13.593539492437138],[100.49445494119905,13.587784997985105],[100.49884665839625,13.592275024626623],[100.49927589591276,13.595322165987344],[100.51173611936595,13.59752031490484],[100.51389660365948,13.602935418257415],[100.52084973824489,13.605383428411669],[100.52674787804972,13.598933838034386],[100.541385616865,13.609746334924704],[100.55129181106594,13.619269899284642],[100.57127536739844,13.611137932958808],[100.58626053564006,13.610514082529212],[100.5915799116624,13.603641966482554],[100.58869546805136,13.589602136130626]]]}},{"type":"Feature","properties":{"province":"สมุทรปราการ","district":"บางเสาธง","district_en":"Bang Sao Thong","zone":"MNM-AREA2 (Bangkok-ONT)","cx":100.81287,"cy":13.63095},"geometry":{"type":"Polygon","coordinates":[[[100.84560781161782,13.639677141360517],[100.83671247544169,13.622220362669266],[100.84243893005049,13.615130516911812],[100.84210303355763,13.603439908328355],[100.83244218166129,13.578989436888188],[100.82198683865155,13.573628395270475],[100.83165071678378,13.57292270309516],[100.8278372542344,13.565598066293912],[100.81035779259228,13.570982347415377],[100.80333983187043,13.561457036857883],[100.79704514980502,13.567110727035383],[100.78985267981874,13.548381720075616],[100.77118782159687,13.553766055782884],[100.76267628993712,13.557069953452897],[100.77531941591681,13.595940810070624],[100.77924322429666,13.59486481433451],[100.7860190926202,13.614889753717211],[100.7831031047486,13.647595750889334],[100.79428694058274,13.666268902863335],[100.79047317403433,13.676725713358183],[100.76289046448099,13.674736738169972],[100.78517449652175,13.706732170405699],[100.78174367176227,13.709997878956077],[100.78467425900394,13.716489650768903],[100.78785906227206,13.716421524705277],[100.83109238671831,13.70572352502946],[100.8557374650304,13.70044122887304],[100.86869590744519,13.694332299825078],[100.85921051388381,13.69039990710278],[100.85885782684392,13.671523266497662],[100.84754666172054,13.652649335953292],[100.8532183360943,13.644946156754866],[100.84560781161782,13.639677141360517]]]}},{"type":"Feature","properties":{"province":"สมุทรปราการ","district":"บางพลี","district_en":"Bang Phli","zone":"MNM-AREA2 (Bangkok-ONT)","cx":100.71716,"cy":13.62214},"geometry":{"type":"Polygon","coordinates":[[[100.77531941591681,13.595940810070624],[100.76267628993712,13.557069953452897],[100.77118782159687,13.553766055782884],[100.76143399217979,13.522428322750141],[100.72261679858715,13.527639189180427],[100.70197658944748,13.531619627023327],[100.70752696907459,13.544744532536981],[100.7008599715754,13.570844298756477],[100.69805945947064,13.58597509883598],[100.67387423098484,13.584058584000834],[100.67574894489799,13.590979940756004],[100.66748557978633,13.604670553801201],[100.67110645637185,13.614155182307996],[100.62883927293691,13.629383778552352],[100.6433563950984,13.652946613159125],[100.64785143804968,13.65187506803731],[100.6526377227091,13.66682865081583],[100.655660756178,13.672264591097576],[100.66679312545742,13.668337163063443],[100.66659019609924,13.667164605177085],[100.69331428767552,13.657095132390038],[100.69276367210568,13.653439320868593],[100.69311040968903,13.651109476261757],[100.69758608793431,13.654730556308026],[100.69899490480715,13.662858032376711],[100.70384173026936,13.672820462093847],[100.70537794723543,13.680212587859112],[100.7093809906222,13.69084272029948],[100.71005115122387,13.695154052731024],[100.71128474884081,13.694921818381795],[100.7114749586443,13.695737371358872],[100.71191811868714,13.70284320514621],[100.70968024324121,13.717923861192128],[100.7479371240212,13.716339956819825],[100.78467425900394,13.716489650768903],[100.78174367176227,13.709997878956077],[100.78517449652175,13.706732170405699],[100.76289046448099,13.674736738169972],[100.79047317403433,13.676725713358183],[100.79428694058274,13.666268902863335],[100.7831031047486,13.647595750889334],[100.7860190926202,13.614889753717211],[100.77924322429666,13.59486481433451],[100.77531941591681,13.595940810070624]]]}},{"type":"Feature","properties":{"province":"สมุทรปราการ","district":"พระประแดง","district_en":"Phra Pradaeng","zone":"MNM-AREA3 (Bangkok-TLC)","cx":100.55775,"cy":13.653},"geometry":{"type":"Polygon","coordinates":[[[100.52674787804972,13.598933838034386],[100.52084973824489,13.605383428411669],[100.52064251954661,13.609024212871988],[100.51705415604363,13.61315568542057],[100.51604077668998,13.617653351168897],[100.51619735323474,13.619654646264925],[100.51512153637803,13.622335760063711],[100.5145213661225,13.628051241018024],[100.51743567566568,13.634028898930438],[100.51653457278532,13.636030992863967],[100.51621138806892,13.639067967899095],[100.5215781429422,13.642777486330234],[100.52327599491632,13.65718610886658],[100.52292060031505,13.661671847663102],[100.51688082204521,13.668520084019697],[100.51694730202098,13.672407768826872],[100.52129923495163,13.679729019796538],[100.52829493613153,13.673447645789757],[100.53729990002863,13.669340058411347],[100.5464184179269,13.671621144566432],[100.54991717427995,13.675840991796983],[100.55133306921594,13.679514521835799],[100.55260844332541,13.687920993236743],[100.55072912175741,13.699595730231598],[100.55119206423,13.7018142348481],[100.55496707736174,13.705864989781086],[100.57170769891738,13.702670011351797],[100.57944608540295,13.699205373196094],[100.58368539160445,13.696452625443436],[100.58794076203591,13.690852582115042],[100.58940891355243,13.685577980969303],[100.58866128412906,13.682394214041564],[100.5793313669742,13.668260067368509],[100.59193129144317,13.664306203777063],[100.59301617943828,13.648804978559003],[100.58731202858175,13.631679469783538],[100.5735183555591,13.63343153501024],[100.5693996529723,13.6367546538329],[100.541385616865,13.609746334924704],[100.52674787804972,13.598933838034386]]]}},{"type":"Feature","properties":{"province":"สมุทรปราการ","district":"เมืองสมุทรปราการ","district_en":"Mueang Samut Prakan","zone":"MNM-AREA2 (Bangkok-ONT)","cx":100.64075,"cy":13.57601},"geometry":{"type":"Polygon","coordinates":[[[100.77691420548912,13.5210399924948],[100.78684744993261,13.512944292825342],[100.78029293681348,13.491647695387602],[100.71595313565734,13.500800308462921],[100.63179879764238,13.521359972748849],[100.61801626646768,13.533490689506412],[100.61252177822757,13.526640572289388],[100.59042920671406,13.543007380161354],[100.5779346161034,13.55971771373478],[100.58276711822099,13.581183632199226],[100.58869546805136,13.589602136130626],[100.5915799116624,13.603641966482554],[100.58626053564006,13.610514082529212],[100.57127536739844,13.611137932958808],[100.55129181106594,13.619269899284642],[100.5693996529723,13.6367546538329],[100.5735183555591,13.63343153501024],[100.58731202858175,13.631679469783538],[100.59301617943828,13.648804978559003],[100.59193129144317,13.664306203777063],[100.61628949644339,13.659588434084828],[100.6433563950984,13.652946613159125],[100.62883927293691,13.629383778552352],[100.67110645637185,13.614155182307996],[100.66748557978633,13.604670553801201],[100.67574894489799,13.590979940756004],[100.67387423098484,13.584058584000834],[100.69805945947064,13.58597509883598],[100.7008599715754,13.570844298756477],[100.70752696907459,13.544744532536981],[100.70197658944748,13.531619627023327],[100.72261679858715,13.527639189180427],[100.76143399217979,13.522428322750141],[100.77691420548912,13.5210399924948]]]}},{"type":"Feature","properties":{"province":"สมุทรปราการ","district":"บางบ่อ","district_en":"Bang Bo","zone":"MNM-AREA2 (Bangkok-ONT)","cx":100.87121,"cy":13.58645},"geometry":{"type":"Polygon","coordinates":[[[100.87934209649293,13.54575115900806],[100.87245474075581,13.523598613579773],[100.87184334915382,13.490587110941778],[100.85175766733623,13.484181211619745],[100.84788794805137,13.478093126845165],[100.78029293681348,13.491647695387602],[100.78684744993261,13.512944292825342],[100.77691420548912,13.5210399924948],[100.76143399217979,13.522428322750141],[100.77118782159687,13.553766055782884],[100.78985267981874,13.548381720075616],[100.79704514980502,13.567110727035383],[100.80333983187043,13.561457036857883],[100.81035779259228,13.570982347415377],[100.8278372542344,13.565598066293912],[100.83165071678378,13.57292270309516],[100.82198683865155,13.573628395270475],[100.83244218166129,13.578989436888188],[100.84210303355763,13.603439908328355],[100.84243893005049,13.615130516911812],[100.83671247544169,13.622220362669266],[100.84560781161782,13.639677141360517],[100.8532183360943,13.644946156754866],[100.84754666172054,13.652649335953292],[100.85885782684392,13.671523266497662],[100.85921051388381,13.69039990710278],[100.86869590744519,13.694332299825078],[100.88779405736406,13.6867039823593],[100.95547634415533,13.662844804436354],[100.95415201080696,13.659779077103178],[100.95362429482878,13.649634020195643],[100.9626719879346,13.644854075989993],[100.95993128692265,13.633220650553302],[100.92334715603852,13.593752800938748],[100.90701638773452,13.591728454888367],[100.9070273149963,13.581177804545739],[100.91486917195625,13.57134894969814],[100.90368451408402,13.554732514444185],[100.89021064761232,13.564637616830188],[100.87934209649293,13.54575115900806]]]}},{"type":"Feature","properties":{"province":"กรุงเทพมหานคร","district":"สายไหม","district_en":"Sai Mai","zone":"MNM-AREA4 (Bangkok-CWT)","cx":100.65095,"cy":13.90486},"geometry":{"type":"Polygon","coordinates":[[[100.68359128056427,13.911540057067425],[100.6922202759658,13.898172142620574],[100.69203839465436,13.886739567569077],[100.68436426979585,13.874141881794023],[100.68124120292072,13.879745876660076],[100.66135254556569,13.878905679610476],[100.65311274211847,13.886343957636852],[100.65273084083965,13.882881302317104],[100.64014541414255,13.886693474882318],[100.62308095125113,13.882971552897843],[100.60948156861848,13.887680394431412],[100.60866398409392,13.895821957017008],[100.62324818544752,13.920496474682109],[100.62530037812726,13.936574216842674],[100.64002104919088,13.934213567988717],[100.63988634483201,13.932009009934312],[100.66299280565455,13.930866350948497],[100.69017094308501,13.930430407890812],[100.69017816462322,13.92863958731098],[100.68791904071085,13.92297335936016],[100.68760015223191,13.917602115570585],[100.68359128056427,13.911540057067425]]]}},{"type":"Feature","properties":{"province":"กรุงเทพมหานคร","district":"คันนายาว","district_en":"Khan Na Yao","zone":"MNM-AREA4 (Bangkok-CWT)","cx":100.67786,"cy":13.82317},"geometry":{"type":"Polygon","coordinates":[[[100.67084224868374,13.852757542286664],[100.68372840354898,13.848172540672879],[100.69671399721766,13.8154195993963],[100.70499033855224,13.797540377726696],[100.67519646391658,13.781091373722642],[100.6735283941697,13.796427928820984],[100.66288876733317,13.810241352933675],[100.6616105136548,13.830929601890771],[100.65731091929966,13.835567349247041],[100.64863076957863,13.833915277579525],[100.64971341578227,13.846353312840408],[100.65872300159832,13.847759016842495],[100.66327093840292,13.856066424559868],[100.67534494487543,13.856536590082513],[100.67084224868374,13.852757542286664]]]}},{"type":"Feature","properties":{"province":"กรุงเทพมหานคร","district":"บางแค","district_en":"Bang Khae","zone":"MNM-AREA3 (Bangkok-TLC)","cx":100.39791,"cy":13.71586},"geometry":{"type":"Polygon","coordinates":[[[100.42485453681891,13.732077692401408],[100.42763694379225,13.687538622729766],[100.39222586370838,13.668837850349485],[100.38500263423978,13.671352984122471],[100.37725961683405,13.700556689913208],[100.35261087843716,13.75213586296365],[100.40591735668873,13.749428546591323],[100.41338194621572,13.747886403137171],[100.4177959245457,13.731160116008901],[100.42485453681891,13.732077692401408]]]}},{"type":"Feature","properties":{"province":"กรุงเทพมหานคร","district":"หลักสี่","district_en":"Lak Si","zone":"MNM-AREA4 (Bangkok-CWT)","cx":100.57118,"cy":13.88357},"geometry":{"type":"Polygon","coordinates":[[[100.59472181529318,13.88769809157564],[100.58805582998531,13.879432384117361],[100.58641886286783,13.858933418725304],[100.5633627369709,13.855128271893077],[100.54316533340635,13.849769591141865],[100.5486333909128,13.871243788797933],[100.54941364868169,13.877631870286326],[100.55912668991184,13.914450910007222],[100.58757410709559,13.899384653246875],[100.58283484567676,13.890695011848075],[100.59472181529318,13.88769809157564]]]}},{"type":"Feature","properties":{"province":"กรุงเทพมหานคร","district":"ทวีวัฒนา","district_en":"Thawi Watthana","zone":"MNM-AREA3 (Bangkok-TLC)","cx":100.36869,"cy":13.76965},"geometry":{"type":"Polygon","coordinates":[[[100.40647146366729,13.760143182797101],[100.40591735668873,13.749428546591323],[100.35261087843716,13.75213586296365],[100.35931505722047,13.73800344510637],[100.33540433954933,13.735434709678723],[100.33492295360243,13.736888911934118],[100.3356487855787,13.73814600429116],[100.33438888319351,13.752520121347963],[100.33336778573346,13.752880343276313],[100.33291665930778,13.757713436228459],[100.33135142686025,13.758743007581545],[100.33068600979897,13.764339376294009],[100.32907139031532,13.76467916102026],[100.33075779397234,13.774617571427964],[100.33093787097864,13.789372172036419],[100.32977237263755,13.80079488655105],[100.32788911328558,13.804213156775479],[100.41081211340932,13.801605694614635],[100.40647146366729,13.760143182797101]]]}},{"type":"Feature","properties":{"province":"กรุงเทพมหานคร","district":"ทุ่งครุ","district_en":"Thung Khru","zone":"MNM-AREA3 (Bangkok-TLC)","cx":100.49366,"cy":13.62619},"geometry":{"type":"Polygon","coordinates":[[[100.52141119859138,13.642508454169821],[100.51621138806892,13.639067967899095],[100.51653457278532,13.636030992863967],[100.51743567566568,13.634028898930438],[100.5145213661225,13.628051241018024],[100.51684434080657,13.613857469076873],[100.52064251954661,13.609024212871988],[100.52086999669541,13.605390084230667],[100.51389660365948,13.602935418257415],[100.51173611936595,13.59752031490484],[100.49927589591276,13.595322165987344],[100.49884665839625,13.592275024626623],[100.49445494119905,13.587784997985105],[100.48183333263454,13.593539492437138],[100.48111730454977,13.597193499267963],[100.47733601741335,13.599183203223717],[100.47763033902567,13.60156453223025],[100.47702125754245,13.60244950922692],[100.48167277088166,13.61536548194836],[100.47202563594358,13.624323403227937],[100.47479195408887,13.635299201903676],[100.47028062392474,13.659061755444501],[100.47583980615342,13.662148539711465],[100.4913625497592,13.65660371491122],[100.49298184809989,13.660445951911704],[100.49694816526467,13.659000582828291],[100.49914108861648,13.654310518890068],[100.50260622635459,13.659775414068589],[100.51171740029156,13.656552853132528],[100.52302619094247,13.661110755317242],[100.52321563569873,13.656242989352231],[100.52141119859138,13.642508454169821]]]}},{"type":"Feature","properties":{"province":"กรุงเทพมหานคร","district":"คลองสามวา","district_en":"Khlong Sam Wa","zone":"MNM-AREA4 (Bangkok-CWT)","cx":100.73784,"cy":13.86644},"geometry":{"type":"Polygon","coordinates":[[[100.72957663945441,13.836577591622461],[100.7296995373171,13.830989810118956],[100.72238601814107,13.830917008050932],[100.72015183809464,13.836528667830919],[100.72020964785011,13.830470189964338],[100.71466151004932,13.830458202660628],[100.71551873009534,13.821918685782565],[100.69671399721766,13.8154195993963],[100.68372840354898,13.848172540672879],[100.67084224868374,13.852757542286664],[100.67534494487543,13.856536590082513],[100.68031463502113,13.858742991934342],[100.68436426979585,13.874141881794023],[100.69203839465436,13.886739567569077],[100.6922202759658,13.898172142620574],[100.68359128056427,13.911540057067425],[100.68760015223191,13.917602115570585],[100.72983476562132,13.9178122874461],[100.74704230313618,13.917325142869926],[100.79251344340756,13.92876568781849],[100.79284447076967,13.893961812262617],[100.79579229910742,13.890205132021018],[100.78831665143738,13.880289716647521],[100.79951745795815,13.849425783874658],[100.74924952417182,13.821993494392906],[100.74334461379918,13.83536607629599],[100.72957663945441,13.836577591622461]]]}},{"type":"Feature","properties":{"province":"กรุงเทพมหานคร","district":"บางนา","district_en":"Bang Na","zone":"MNM-AREA2 (Bangkok-ONT)","cx":100.61912,"cy":13.66628},"geometry":{"type":"Polygon","coordinates":[[[100.62436215127711,13.684503765419125],[100.62593676673104,13.678305093680523],[100.64026762361861,13.677851330551308],[100.6453572061883,13.669560509127212],[100.65354905402329,13.66911057973839],[100.64785143804968,13.65187506803731],[100.61628949644339,13.659588434084828],[100.59193129144317,13.664306203777063],[100.5793313669742,13.668260067368509],[100.58883336473359,13.683042754590891],[100.60029373454891,13.679943172385787],[100.62436215127711,13.684503765419125]]]}},{"type":"Feature","properties":{"province":"กรุงเทพมหานคร","district":"สะพานสูง","district_en":"Saphan Sung","zone":"MNM-AREA2 (Bangkok-ONT)","cx":100.68899,"cy":13.76605},"geometry":{"type":"Polygon","coordinates":[[[100.70980150527303,13.756488618864987],[100.70835396213815,13.731872891745637],[100.65913567279746,13.73819118673732],[100.66635569087589,13.746919221194288],[100.6789849812242,13.751820694816345],[100.66977148241047,13.756262565141974],[100.6646949380523,13.775300991437984],[100.70499033855224,13.797540377726696],[100.71633261731576,13.778121144423787],[100.7065812496675,13.756797916387699],[100.70980150527303,13.756488618864987]]]}},{"type":"Feature","properties":{"province":"กรุงเทพมหานคร","district":"วังทองหลาง","district_en":"Wang Thonglang","zone":"MNM-AREA2 (Bangkok-ONT)","cx":100.61122,"cy":13.77603},"geometry":{"type":"Polygon","coordinates":[[[100.60255683494985,13.800255516110349],[100.605714597711,13.795160623664554],[100.61204161538231,13.794871771106813],[100.61474795557594,13.7997384492916],[100.62363704508579,13.800210917669515],[100.62594157256022,13.788082369918566],[100.62901027030638,13.78866315218441],[100.63047256022536,13.763141067070475],[100.61533108390003,13.76111326265026],[100.60405518728905,13.751030425408796],[100.5946721960682,13.76397651607721],[100.58836859219261,13.802766719237491],[100.60255683494985,13.800255516110349]]]}},{"type":"Feature","properties":{"province":"กรุงเทพมหานคร","district":"บางบอน","district_en":"Bang Bon","zone":"MNM-AREA3 (Bangkok-TLC)","cx":100.39254,"cy":13.66177},"geometry":{"type":"Polygon","coordinates":[[[100.44683593793228,13.682579650105117],[100.37741995081652,13.620778476149159],[100.37201485182635,13.62085822591136],[100.37178087578089,13.624500549157883],[100.36739876036175,13.629562279614337],[100.3665561937986,13.633806475922531],[100.35500005479872,13.637635276835079],[100.35486866276909,13.638581086714135],[100.34627646078891,13.639917582094819],[100.34468207201077,13.642473889780982],[100.34505433174431,13.6533210319608],[100.34437286983977,13.654698870782239],[100.38500263423978,13.671352984122471],[100.39222586370838,13.668837850349485],[100.42763694379225,13.687538622729766],[100.43770274828285,13.693651123411755],[100.44683593793228,13.682579650105117]]]}},{"type":"Feature","properties":{"province":"กรุงเทพมหานคร","district":"บางกอกน้อย","district_en":"Bangkok Noi","zone":"MNM-AREA3 (Bangkok-TLC)","cx":100.47187,"cy":13.76392},"geometry":{"type":"Polygon","coordinates":[[[100.48831027567043,13.748302088787897],[100.4705192701318,13.743168132624916],[100.46210429319706,13.74437635044875],[100.45349600929356,13.765881633121937],[100.45689707841348,13.77634521263529],[100.46741045917639,13.779698581761018],[100.46601746327342,13.78703231543802],[100.46859639533035,13.787714104313915],[100.48209015645924,13.773253578364406],[100.49100394189205,13.76196594742977],[100.4893677597517,13.759973596726805],[100.48831027567043,13.748302088787897]]]}},{"type":"Feature","properties":{"province":"กรุงเทพมหานคร","district":"บางขุนเทียน","district_en":"Bang Khun Thian","zone":"MNM-AREA3 (Bangkok-TLC)","cx":100.41581,"cy":13.58309},"geometry":{"type":"Polygon","coordinates":[[[100.46465225433026,13.655695009880548],[100.47028062392474,13.659061755444501],[100.47479195408887,13.635299201903676],[100.47202563594358,13.624323403227937],[100.48167277088166,13.61536548194836],[100.47702125754245,13.60244950922692],[100.47553022354913,13.601851562758066],[100.47335318142758,13.597918640566638],[100.47348166354696,13.595343839974147],[100.46994347935474,13.593490137259831],[100.46705407888712,13.59728574887734],[100.46636286722804,13.601537340360908],[100.46676695802175,13.603751941318587],[100.45473185559214,13.605266634812635],[100.45242845832826,13.60159413265178],[100.45199725933182,13.599079080633077],[100.44645779934402,13.586279375121611],[100.4445194267192,13.553037784221637],[100.44633674704093,13.54070372482994],[100.45411039345409,13.502411402106844],[100.45785745755596,13.48698924474914],[100.41067889257315,13.49149451172356],[100.40862157722401,13.500853845415051],[100.4065776219821,13.506173207842728],[100.40644352432699,13.519043740851522],[100.40758100405975,13.525796920336191],[100.40706218994177,13.535275651308632],[100.40960157559756,13.536151263870462],[100.40975215155541,13.537300036226029],[100.41597740926493,13.539766598614811],[100.41912701567284,13.543072506431452],[100.4194849574062,13.545976007797957],[100.4156061161878,13.551710711105972],[100.41503127283997,13.556334088631868],[100.40005033088036,13.552743124932327],[100.39401964178268,13.556667112041806],[100.39093179460168,13.568453769117346],[100.38628171710756,13.57521359986006],[100.38658466365891,13.577369601721134],[100.38520054768033,13.580389492717837],[100.38548791865757,13.5857862321255],[100.38443306713606,13.58882785198348],[100.37885724943621,13.594425125270536],[100.37941814300088,13.609414119175572],[100.3786920775727,13.616504187961647],[100.37741995081652,13.620778476149159],[100.44683593793228,13.682579650105117],[100.44861279421069,13.6816517366475],[100.44870487543413,13.675261267736728],[100.45160159182495,13.6753991216366],[100.45062097804718,13.661311986424721],[100.46465225433026,13.655695009880548]]]}},{"type":"Feature","properties":{"province":"กรุงเทพมหานคร","district":"สาทร","district_en":"Sathon","zone":"MNM-AREA1 (Bangkok-ST2)","cx":100.52701,"cy":13.71428},"geometry":{"type":"Polygon","coordinates":[[[100.53748100355762,13.707099717575543],[100.52870750044072,13.705928147171672],[100.53023386634878,13.70195381124931],[100.51464532362361,13.704890394433473],[100.51646027111813,13.708393348628714],[100.50781780677764,13.712004356385155],[100.51206775911926,13.719370394067719],[100.51515891376911,13.71857067798382],[100.5302514497052,13.721890030427804],[100.54455890975193,13.726259625293968],[100.55299900357925,13.722749172779562],[100.55383375168026,13.716557670438617],[100.54907202087036,13.719269975725544],[100.54183384225773,13.710632980760854],[100.54376180540116,13.707043638729084],[100.53748100355762,13.707099717575543]]]}},{"type":"Feature","properties":{"province":"กรุงเทพมหานคร","district":"บางซื่อ","district_en":"Bang Sue","zone":"MNM-AREA1 (Bangkok-ST2)","cx":100.52445,"cy":13.8243},"geometry":{"type":"Polygon","coordinates":[[[100.53721190737318,13.821546915673819],[100.54491755231005,13.817834242604048],[100.53750297137928,13.797776321154789],[100.51653566118681,13.80044213045062],[100.51514157464415,13.813458367082786],[100.50716507021278,13.8160226688793],[100.50651192991312,13.817213097014356],[100.5070987833164,13.819650127302667],[100.50661936526772,13.821335525937588],[100.50872559374372,13.82350446504832],[100.51338761516381,13.82510283840374],[100.51338459002028,13.8256192296706],[100.54379417064399,13.849909125903476],[100.53721190737318,13.821546915673819]]]}},{"type":"Feature","properties":{"province":"กรุงเทพมหานคร","district":"ดินแดง","district_en":"Din Daeng","zone":"MNM-AREA1 (Bangkok-ST2)","cx":100.56494,"cy":13.78272},"geometry":{"type":"Polygon","coordinates":[[[100.57480474343834,13.801039425221914],[100.5731206556489,13.77044928591501],[100.56479641756022,13.755150373113164],[100.55241296446104,13.756007183863764],[100.5432413201233,13.762803570435654],[100.54815929623479,13.763937649562276],[100.56125154221378,13.794983779590503],[100.57480474343834,13.801039425221914]]]}},{"type":"Feature","properties":{"province":"กรุงเทพมหานคร","district":"บึงกุ่ม","district_en":"Bueng Kum","zone":"MNM-AREA4 (Bangkok-CWT)","cx":100.65256,"cy":13.80333},"geometry":{"type":"Polygon","coordinates":[[[100.64971341578227,13.846353312840408],[100.64863076957863,13.833915277579525],[100.65731091929966,13.835567349247041],[100.6616105136548,13.830929601890771],[100.66288876733317,13.810241352933675],[100.6735283941697,13.796427928820984],[100.67519646391658,13.781091373722642],[100.65616156783979,13.770615428026995],[100.64823324825838,13.784674345668328],[100.64267441454386,13.786888769679056],[100.63134686807814,13.819210486305192],[100.62357961155458,13.817218062575861],[100.6363177835643,13.844091919272689],[100.64971341578227,13.846353312840408]]]}},{"type":"Feature","properties":{"province":"กรุงเทพมหานคร","district":"ราษฎร์บูรณะ","district_en":"Rat Burana","zone":"MNM-AREA3 (Bangkok-TLC)","cx":100.50232,"cy":13.67593},"geometry":{"type":"Polygon","coordinates":[[[100.51171740029156,13.656552853132528],[100.50260622635459,13.659775414068589],[100.49914108861648,13.654310518890068],[100.49694816526467,13.659000582828291],[100.49298184809989,13.660445951911704],[100.4913625497592,13.65660371491122],[100.47583980615342,13.662148539711465],[100.48207859014283,13.664776886712453],[100.48013277445419,13.669321858718002],[100.48850059463295,13.679446901255012],[100.48794690400496,13.68530559332208],[100.48132627845625,13.690084275998498],[100.48260465384489,13.69464273075194],[100.49004713385727,13.694929106927772],[100.50025505590564,13.686825677870223],[100.50616074335188,13.685728817978141],[100.51763482670133,13.682326604612433],[100.52129923495163,13.679729019796538],[100.51694730202098,13.672407768826872],[100.51674163245569,13.669520924666337],[100.51688082204521,13.668520084019697],[100.52302619094247,13.661110755317242],[100.51171740029156,13.656552853132528]]]}},{"type":"Feature","properties":{"province":"กรุงเทพมหานคร","district":"บางพลัด","district_en":"Bang Phlat","zone":"MNM-AREA3 (Bangkok-TLC)","cx":100.48647,"cy":13.78825},"geometry":{"type":"Polygon","coordinates":[[[100.49108531524566,13.762037770421456],[100.48209015645924,13.773253578364406],[100.46859639533035,13.787714104313915],[100.46601746327342,13.78703231543802],[100.46612957939197,13.788790775057196],[100.4941656416737,13.798266195963889],[100.51512091814057,13.813392960434472],[100.51653566118681,13.80044213045062],[100.50580027762135,13.786943391312844],[100.50232228836089,13.781177168733405],[100.49885402167119,13.772826667886875],[100.49483292169867,13.765482825565382],[100.49108531524566,13.762037770421456]]]}},{"type":"Feature","properties":{"province":"กรุงเทพมหานคร","district":"ภาษีเจริญ","district_en":"Phasi Charoen","zone":"MNM-AREA3 (Bangkok-TLC)","cx":100.44402,"cy":13.71693},"geometry":{"type":"Polygon","coordinates":[[[100.46012414282922,13.71307259435751],[100.45533569773048,13.711923419170146],[100.45596219306552,13.708371671420268],[100.45277610078023,13.710107944812739],[100.44983360808901,13.705403122553635],[100.43840543455347,13.709617947573507],[100.4342254733459,13.699679326048305],[100.43770274828285,13.693651123411755],[100.42763694379225,13.687538622729766],[100.42485453681891,13.732077692401408],[100.4177959245457,13.731160116008901],[100.41338194621572,13.747886403137171],[100.43230692027926,13.740349969302146],[100.46210429319706,13.74437635044875],[100.46351784719474,13.731225524327753],[100.4715912263966,13.722577508854167],[100.46915858745275,13.715939980972816],[100.46277717404932,13.71792474098742],[100.46012414282922,13.71307259435751]]]}},{"type":"Feature","properties":{"province":"กรุงเทพมหานคร","district":"หนองแขม","district_en":"Nong Khaem","zone":"MNM-AREA3 (Bangkok-TLC)","cx":100.35523,"cy":13.69344},"geometry":{"type":"Polygon","coordinates":[[[100.37725961683405,13.700556689913208],[100.38500263423978,13.671352984122471],[100.34437286983977,13.654698870782239],[100.3394842716125,13.654875596005423],[100.33940284200588,13.657338327362488],[100.34111877044128,13.659987969918566],[100.34122004763785,13.661448524581829],[100.33845893283127,13.672723981634318],[100.33375514009776,13.68085603422885],[100.33186970971566,13.688975134885982],[100.33074049188119,13.697895860362772],[100.33079527032324,13.699518259996823],[100.3355593329892,13.705466940556846],[100.33739549677188,13.715514016739357],[100.33561394827272,13.725560849736478],[100.33626213642944,13.726713499967087],[100.33528799116263,13.73077794441512],[100.33540433954933,13.735434709678723],[100.35931505722047,13.73800344510637],[100.37725961683405,13.700556689913208]]]}},{"type":"Feature","properties":{"province":"กรุงเทพมหานคร","district":"ตลิ่งชัน","district_en":"Taling Chan","zone":"MNM-AREA3 (Bangkok-TLC)","cx":100.4314,"cy":13.77111},"geometry":{"type":"Polygon","coordinates":[[[100.46210429319706,13.74437635044875],[100.43230692027926,13.740349969302146],[100.41338194621572,13.747886403137171],[100.40591735668873,13.749428546591323],[100.4063079176892,13.75869662115179],[100.41081211340932,13.801605694614635],[100.46422346458218,13.797186512585244],[100.46964453731107,13.794569983873268],[100.46558531612779,13.789480089567295],[100.46612957939197,13.788790775057196],[100.466747367302,13.78126072811789],[100.46741045917639,13.779698581761018],[100.45689707841348,13.77634521263529],[100.45349600929356,13.765881633121937],[100.46210429319706,13.74437635044875]]]}},{"type":"Feature","properties":{"province":"กรุงเทพมหานคร","district":"บางคอแหลม","district_en":"Bang Kho Laem","zone":"MNM-AREA1 (Bangkok-ST2)","cx":100.51076,"cy":13.69698},"geometry":{"type":"Polygon","coordinates":[[[100.51464532362361,13.704890394433473],[100.53023386634878,13.70195381124931],[100.53143872779634,13.699020988761834],[100.51763482670133,13.682326604612433],[100.50616074335188,13.685728817978141],[100.50025505590564,13.686825677870223],[100.49004713385727,13.694929106927772],[100.49867368138298,13.705171872660069],[100.50781780677764,13.712004356385155],[100.51646027111813,13.708393348628714],[100.51464532362361,13.704890394433473]]]}},{"type":"Feature","properties":{"province":"กรุงเทพมหานคร","district":"ประเวศ","district_en":"Prawet","zone":"MNM-AREA2 (Bangkok-ONT)","cx":100.67296,"cy":13.69288},"geometry":{"type":"Polygon","coordinates":[[[100.71005055267898,13.69515066738433],[100.7093809906222,13.69084272029948],[100.70537794723543,13.680212587859112],[100.70384173026936,13.672820462093847],[100.69899490480715,13.662858032376711],[100.69758608793431,13.654730556308026],[100.69311040968903,13.651109476261757],[100.69276367210568,13.653439320868593],[100.69331428767552,13.657095132390038],[100.66659019609924,13.667164605177085],[100.66679312545742,13.668337163063443],[100.655660756178,13.672264591097576],[100.65354905402329,13.66911057973839],[100.6453572061883,13.669560509127212],[100.64026762361861,13.677851330551308],[100.63410871909166,13.700682684706937],[100.65095094571763,13.70297746542659],[100.64979649660319,13.728873700684519],[100.65913567279746,13.73819118673732],[100.70835396213815,13.731872891745637],[100.70989509242268,13.714956567293726],[100.71205310640202,13.70073852534981],[100.71128474884081,13.694921818381795],[100.71005055267898,13.69515066738433]]]}},{"type":"Feature","properties":{"province":"กรุงเทพมหานคร","district":"จตุจักร","district_en":"Chatuchak","zone":"MNM-AREA1 (Bangkok-ST2)","cx":100.56446,"cy":13.82839},"geometry":{"type":"Polygon","coordinates":[[[100.58984216870341,13.843845380557877],[100.59060524457202,13.835238643779311],[100.58828534020228,13.803021480592875],[100.57480474343834,13.801039425221914],[100.56125154221378,13.794983779590503],[100.53750297137928,13.797776321154789],[100.54491755231005,13.817834242604048],[100.53721190737318,13.821546915673819],[100.54379417064399,13.849909125903476],[100.5633627369709,13.855128271893077],[100.58641886286783,13.858933418725304],[100.58984216870341,13.843845380557877]]]}},{"type":"Feature","properties":{"province":"กรุงเทพมหานคร","district":"วัฒนา","district_en":"Watthana","zone":"MNM-AREA2 (Bangkok-ONT)","cx":100.59027,"cy":13.72684},"geometry":{"type":"Polygon","coordinates":[[[100.60489707813156,13.737681037672667],[100.60638156496198,13.715244329011655],[100.601740614564,13.712054276438618],[100.60576036274651,13.706568592162435],[100.6015859496687,13.704664686720614],[100.58453802989402,13.720038250580313],[100.56530552362106,13.733643983148989],[100.55077441968972,13.742744468998543],[100.55019446181186,13.748323083774158],[100.56316409319635,13.747807327896512],[100.59790020799649,13.74106525695838],[100.60489707813156,13.737681037672667]]]}},{"type":"Feature","properties":{"province":"กรุงเทพมหานคร","district":"ราชเทวี","district_en":"Ratchathewi","zone":"MNM-AREA1 (Bangkok-ST2)","cx":100.53206,"cy":13.76521},"geometry":{"type":"Polygon","coordinates":[[[100.54102784606467,13.749407628372568],[100.52525813811688,13.74926500603984],[100.5190145469371,13.752675237797703],[100.52773771783835,13.774405020407807],[100.55241296446104,13.756007183863764],[100.56479641756022,13.755150373113164],[100.56316409319635,13.747807327896512],[100.55019446181186,13.748323083774158],[100.54102784606467,13.749407628372568]]]}},{"type":"Feature","properties":{"province":"กรุงเทพมหานคร","district":"ลาดพร้าว","district_en":"Lat Phrao","zone":"MNM-AREA1 (Bangkok-ST2)","cx":100.60892,"cy":13.82623},"geometry":{"type":"Polygon","coordinates":[[[100.6363177835643,13.844091919272689],[100.62357961155458,13.817218062575861],[100.61204161538231,13.794871771106813],[100.605714597711,13.795160623664554],[100.60255683494985,13.800255516110349],[100.58836859219261,13.802766719237491],[100.59060524457202,13.835238643779311],[100.58984216870341,13.843845380557877],[100.61893197770023,13.848524631677074],[100.62875486075927,13.84267575019149],[100.6363177835643,13.844091919272689]]]}},{"type":"Feature","properties":{"province":"กรุงเทพมหานคร","district":"จอมทอง","district_en":"Chom Thong","zone":"MNM-AREA3 (Bangkok-TLC)","cx":100.46363,"cy":13.68769},"geometry":{"type":"Polygon","coordinates":[[[100.48794690400496,13.68530559332208],[100.48850059463295,13.679446901255012],[100.48013277445419,13.669321858718002],[100.48207859014283,13.664776886712453],[100.47583980615342,13.662148539711465],[100.46465225433026,13.655695009880548],[100.45062097804718,13.661311986424721],[100.45160159182495,13.6753991216366],[100.44870487543413,13.675261267736728],[100.44861279421069,13.6816517366475],[100.44683593793228,13.682579650105117],[100.43770274828285,13.693651123411755],[100.4342254733459,13.699679326048305],[100.43840543455347,13.709617947573507],[100.44983360808901,13.705403122553635],[100.45277610078023,13.710107944812739],[100.45596219306552,13.708371671420268],[100.45533569773048,13.711923419170146],[100.46012414282922,13.71307259435751],[100.46277717404932,13.71792474098742],[100.46915858745275,13.715939980972816],[100.46606646659981,13.709441919019751],[100.4769920982484,13.708780282438406],[100.48260465384489,13.69464273075194],[100.48132627845625,13.690084275998498],[100.48794690400496,13.68530559332208]]]}},{"type":"Feature","properties":{"province":"กรุงเทพมหานคร","district":"ดอนเมือง","district_en":"Don Mueang","zone":"MNM-AREA4 (Bangkok-CWT)","cx":100.59336,"cy":13.92854},"geometry":{"type":"Polygon","coordinates":[[[100.60820104785728,13.94254269507048],[100.60692177505969,13.95401361214272],[100.62292868245528,13.948035480249839],[100.62351435356443,13.947253103093338],[100.62530037812726,13.936574216842674],[100.62324818544752,13.920496474682109],[100.60866398409392,13.895821957017008],[100.59472181529318,13.88769809157564],[100.58283484567676,13.890695011848075],[100.58757410709559,13.899384653246875],[100.55912668991184,13.914450910007222],[100.56779977320602,13.951250998161566],[100.57657458666004,13.954553421857204],[100.60820104785728,13.94254269507048]]]}},{"type":"Feature","properties":{"province":"กรุงเทพมหานคร","district":"คลองเตย","district_en":"Khlong Toei","zone":"MNM-AREA2 (Bangkok-ONT)","cx":100.57328,"cy":13.71295},"geometry":{"type":"Polygon","coordinates":[[[100.6015859496687,13.704664686720614],[100.58334232956157,13.696735034211404],[100.57944608540295,13.699205373196094],[100.57170769891738,13.702670011351797],[100.55496707736174,13.705864989781086],[100.55077441968972,13.742744468998543],[100.56530552362106,13.733643983148989],[100.58453802989402,13.720038250580313],[100.6015859496687,13.704664686720614]]]}},{"type":"Feature","properties":{"province":"กรุงเทพมหานคร","district":"สวนหลวง","district_en":"Suan Luang","zone":"MNM-AREA2 (Bangkok-ONT)","cx":100.62802,"cy":13.72206},"geometry":{"type":"Polygon","coordinates":[[[100.65915367100135,13.738367322390122],[100.64979649660319,13.728873700684519],[100.65095094571763,13.70297746542659],[100.63410871909166,13.700682684706937],[100.63222925064252,13.70471969815145],[100.60576036274651,13.706568592162435],[100.601740614564,13.712054276438618],[100.60638156496198,13.715244329011655],[100.60489707813156,13.737681037672667],[100.59790020799649,13.74106525695838],[100.60106727239712,13.748141526970427],[100.61086771829738,13.743734445317479],[100.63604324038126,13.75004288617271],[100.65915367100135,13.738367322390122]]]}},{"type":"Feature","properties":{"province":"กรุงเทพมหานคร","district":"บางกะปิ","district_en":"Bang Kapi","zone":"MNM-AREA2 (Bangkok-ONT)","cx":100.64019,"cy":13.77999},"geometry":{"type":"Polygon","coordinates":[[[100.66635569087589,13.746919221194288],[100.65915367100135,13.738367322390122],[100.63604324038126,13.75004288617271],[100.61086771829738,13.743734445317479],[100.60106727239712,13.748141526970427],[100.61533108390003,13.76111326265026],[100.63047256022536,13.763141067070475],[100.62901027030638,13.78866315218441],[100.62594157256022,13.788082369918566],[100.62363704508579,13.800210917669515],[100.61474795557594,13.7997384492916],[100.62357961155458,13.817218062575861],[100.63134686807814,13.819210486305192],[100.64267441454386,13.786888769679056],[100.64823324825838,13.784674345668328],[100.65616156783979,13.770615428026995],[100.6646949380523,13.775300991437984],[100.66977148241047,13.756262565141974],[100.6789849812242,13.751820694816345],[100.66635569087589,13.746919221194288]]]}},{"type":"Feature","properties":{"province":"กรุงเทพมหานคร","district":"ปทุมวัน","district_en":"Pathum Wan","zone":"MNM-AREA1 (Bangkok-ST2)","cx":100.54326,"cy":13.73039},"geometry":{"type":"Polygon","coordinates":[[[100.55019446181186,13.748323083774158],[100.55299900357925,13.722749172779562],[100.51571841827693,13.738024579367826],[100.51740914994066,13.753151782905217],[100.52525813811688,13.74926500603984],[100.54102784606467,13.749407628372568],[100.55019446181186,13.748323083774158]]]}},{"type":"Feature","properties":{"province":"กรุงเทพมหานคร","district":"บางรัก","district_en":"Bang Rak","zone":"MNM-AREA1 (Bangkok-ST2)","cx":100.52665,"cy":13.72772},"geometry":{"type":"Polygon","coordinates":[[[100.51571841827693,13.738024579367826],[100.54455890975193,13.726259625293968],[100.5302514497052,13.721890030427804],[100.51515891376911,13.71857067798382],[100.51206775911926,13.719370394067719],[100.51237683620943,13.729188709836693],[100.51523926232743,13.731808408805115],[100.51571841827693,13.738024579367826]]]}},{"type":"Feature","properties":{"province":"กรุงเทพมหานคร","district":"บางเขน","district_en":"Bang Khen","zone":"MNM-AREA4 (Bangkok-CWT)","cx":100.6347,"cy":13.86654},"geometry":{"type":"Polygon","coordinates":[[[100.65273084083965,13.882881302317104],[100.65311274211847,13.886343957636852],[100.66135254556569,13.878905679610476],[100.68124120292072,13.879745876660076],[100.68436426979585,13.874141881794023],[100.68031463502113,13.858742991934342],[100.67534494487543,13.856536590082513],[100.66327093840292,13.856066424559868],[100.65872300159832,13.847759016842495],[100.62875486075927,13.84267575019149],[100.61893197770023,13.848524631677074],[100.58984216870341,13.843845380557877],[100.58641886286783,13.858933418725304],[100.58805582998531,13.879432384117361],[100.59472181529318,13.88769809157564],[100.60866398409392,13.895821957017008],[100.60948156861848,13.887680394431412],[100.62308095125113,13.882971552897843],[100.64014541414255,13.886693474882318],[100.65273084083965,13.882881302317104]]]}},{"type":"Feature","properties":{"province":"กรุงเทพมหานคร","district":"ดุสิต","district_en":"Dusit","zone":"MNM-AREA1 (Bangkok-ST2)","cx":100.51479,"cy":13.777},"geometry":{"type":"Polygon","coordinates":[[[100.53750297137928,13.797776321154789],[100.5190145469371,13.752675237797703],[100.51740914994066,13.753151782905217],[100.51643755726772,13.756646965910967],[100.5038475552984,13.769762358894527],[100.49885402167119,13.772826667886875],[100.50232228836089,13.781177168733405],[100.50580027762135,13.786943391312844],[100.51653566118681,13.80044213045062],[100.53750297137928,13.797776321154789]]]}},{"type":"Feature","properties":{"province":"กรุงเทพมหานคร","district":"หนองจอก","district_en":"Nong Chok","zone":"MNM-AREA2 (Bangkok-ONT)","cx":100.85833,"cy":13.84175},"geometry":{"type":"Polygon","coordinates":[[[100.87833119822548,13.737927123846386],[100.86774337168819,13.750509219776305],[100.86130575484475,13.769996288704386],[100.84256837763232,13.770930314234306],[100.83755113319914,13.767561594599186],[100.83220036260848,13.76750543501],[100.81476354389686,13.784218435833568],[100.79387018097323,13.783846343953662],[100.7950194796246,13.79402066015711],[100.80772168534425,13.808018085605983],[100.80152225162315,13.810633874439201],[100.8014376454362,13.820460134969926],[100.80598027083064,13.826195352429496],[100.80843815022683,13.853414809076162],[100.79951745795815,13.849425783874658],[100.78831665143738,13.880289716647521],[100.79579229910742,13.890205132021018],[100.79284447076967,13.893961812262617],[100.79251344340756,13.92876568781849],[100.83950969306005,13.936108932747512],[100.91241982642208,13.945398230982855],[100.91246123043315,13.936030378636218],[100.90809337314514,13.901432432387956],[100.90610082329503,13.880292024645902],[100.90603275397413,13.862751559171137],[100.90460393706482,13.848531709299126],[100.91280269911394,13.846301037865796],[100.91124352226105,13.844947390839646],[100.90729742831559,13.838553475140335],[100.9379578268588,13.814649251296155],[100.93059703031989,13.804825767877595],[100.90719015281277,13.786718595427015],[100.87833119822548,13.737927123846386]]]}},{"type":"Feature","properties":{"province":"กรุงเทพมหานคร","district":"พระนคร","district_en":"Phra Nakhon","zone":"MNM-AREA1 (Bangkok-ST2)","cx":100.4973,"cy":13.75502},"geometry":{"type":"Polygon","coordinates":[[[100.4998750910592,13.738659232608457],[100.49347730519098,13.740837006044277],[100.49186997605408,13.742376663874573],[100.48831027567043,13.748302088787897],[100.4893677597517,13.759973596726805],[100.49483292169867,13.765482825565382],[100.49885402167119,13.772826667886875],[100.5038475552984,13.769762358894527],[100.50941651432345,13.763704649983602],[100.50573606312567,13.756234618305726],[100.50562106140845,13.753795804564565],[100.50320785520361,13.744797077136724],[100.4998750910592,13.738659232608457]]]}},{"type":"Feature","properties":{"province":"กรุงเทพมหานคร","district":"มีนบุรี","district_en":"Min Buri","zone":"MNM-AREA2 (Bangkok-ONT)","cx":100.74966,"cy":13.81303},"geometry":{"type":"Polygon","coordinates":[[[100.74334461379918,13.83536607629599],[100.74924952417182,13.821993494392906],[100.79951745795815,13.849425783874658],[100.80843815022683,13.853414809076162],[100.80598027083064,13.826195352429496],[100.8014376454362,13.820460134969926],[100.80152225162315,13.810633874439201],[100.80772168534425,13.808018085605983],[100.7950194796246,13.79402066015711],[100.78853712145445,13.800369834248201],[100.78261003367443,13.798824426297505],[100.78277285987117,13.781821099189859],[100.76869645273402,13.78235428035159],[100.76031831724114,13.776120260577146],[100.74645178884246,13.777501377420528],[100.74638956825805,13.774026533441237],[100.73892796083855,13.773766400641733],[100.7389084710178,13.777383062908559],[100.73341857942688,13.774746393684529],[100.71633261731576,13.778121144423787],[100.70499033855224,13.797540377726696],[100.69671399721766,13.8154195993963],[100.71551873009534,13.821918685782565],[100.71466151004932,13.830458202660628],[100.72020964785011,13.830470189964338],[100.72015183809464,13.836528667830919],[100.72238601814107,13.830917008050932],[100.7296995373171,13.830989810118956],[100.72957663945441,13.836577591622461],[100.74334461379918,13.83536607629599]]]}},{"type":"Feature","properties":{"province":"กรุงเทพมหานคร","district":"ห้วยขวาง","district_en":"Huai Khwang","zone":"MNM-AREA1 (Bangkok-ST2)","cx":100.58254,"cy":13.78574},"geometry":{"type":"Polygon","coordinates":[[[100.60405518728905,13.751030425408796],[100.60106727239712,13.748141526970427],[100.59790020799649,13.74106525695838],[100.56316409319635,13.747807327896512],[100.56479641756022,13.755150373113164],[100.5731206556489,13.77044928591501],[100.57480474343834,13.801039425221914],[100.58828534020228,13.803021480592875],[100.5946721960682,13.76397651607721],[100.60405518728905,13.751030425408796]]]}},{"type":"Feature","properties":{"province":"กรุงเทพมหานคร","district":"คลองสาน","district_en":"Khlong San","zone":"MNM-AREA3 (Bangkok-TLC)","cx":100.50269,"cy":13.72402},"geometry":{"type":"Polygon","coordinates":[[[100.49867368138298,13.705171872660069],[100.49297797255907,13.721018678058611],[100.4933696100738,13.727020796163746],[100.49607514760359,13.734917358198329],[100.49851692543473,13.739018893812021],[100.50653167644664,13.737027740567438],[100.50925645119949,13.73537947642068],[100.51237683620943,13.729188709836693],[100.51206775911926,13.719370394067719],[100.50781780677764,13.712004356385155],[100.49867368138298,13.705171872660069]]]}},{"type":"Feature","properties":{"province":"กรุงเทพมหานคร","district":"ธนบุรี","district_en":"Thon Buri","zone":"MNM-AREA3 (Bangkok-TLC)","cx":100.48178,"cy":13.71523},"geometry":{"type":"Polygon","coordinates":[[[100.49867368138298,13.705171872660069],[100.49004713385727,13.694929106927772],[100.48260465384489,13.69464273075194],[100.4769920982484,13.708780282438406],[100.46606646659981,13.709441919019751],[100.4715912263966,13.722577508854167],[100.47858018834958,13.722832950910872],[100.48555006654752,13.727586601752172],[100.48771271804566,13.736037955553215],[100.49186997605408,13.742376663874573],[100.49347730519098,13.740837006044277],[100.49851692543473,13.739018893812021],[100.49607514760359,13.734917358198329],[100.4933696100738,13.727020796163746],[100.49297797255907,13.721018678058611],[100.49867368138298,13.705171872660069]]]}},{"type":"Feature","properties":{"province":"กรุงเทพมหานคร","district":"บางกอกใหญ่","district_en":"Bangkok Yai","zone":"MNM-AREA3 (Bangkok-TLC)","cx":100.47518,"cy":13.73363},"geometry":{"type":"Polygon","coordinates":[[[100.48771271804566,13.736037955553215],[100.48555006654752,13.727586601752172],[100.47858018834958,13.722832950910872],[100.4715912263966,13.722577508854167],[100.46351784719474,13.731225524327753],[100.46210429319706,13.74437635044875],[100.4705192701318,13.743168132624916],[100.48831027567043,13.748302088787897],[100.49186997605408,13.742376663874573],[100.48771271804566,13.736037955553215]]]}},{"type":"Feature","properties":{"province":"กรุงเทพมหานคร","district":"สัมพันธวงศ์","district_en":"Samphanthawong","zone":"MNM-AREA1 (Bangkok-ST2)","cx":100.51009,"cy":13.73753},"geometry":{"type":"Polygon","coordinates":[[[100.51523926232743,13.731808408805115],[100.51237683620943,13.729188709836693],[100.50925645119949,13.73537947642068],[100.50653167644664,13.737027740567438],[100.4998750910592,13.738659232608457],[100.5039252422492,13.746814150067495],[100.51571841827693,13.738024579367826],[100.51523926232743,13.731808408805115]]]}},{"type":"Feature","properties":{"province":"กรุงเทพมหานคร","district":"พญาไท","district_en":"Phaya Thai","zone":"MNM-AREA1 (Bangkok-ST2)","cx":100.54447,"cy":13.78469},"geometry":{"type":"Polygon","coordinates":[[[100.56125154221378,13.794983779590503],[100.54815929623479,13.763937649562276],[100.5432413201233,13.762803570435654],[100.52773771783835,13.774405020407807],[100.53750297137928,13.797776321154789],[100.56125154221378,13.794983779590503]]]}},{"type":"Feature","properties":{"province":"กรุงเทพมหานคร","district":"ลาดกระบัง","district_en":"Lat Krabang","zone":"MNM-AREA2 (Bangkok-ONT)","cx":100.79107,"cy":13.74422},"geometry":{"type":"Polygon","coordinates":[[[100.83220036260848,13.76750543501],[100.83755113319914,13.767561594599186],[100.84256837763232,13.770930314234306],[100.86130575484475,13.769996288704386],[100.86774337168819,13.750509219776305],[100.87833119822548,13.737927123846386],[100.8557374650304,13.70044122887304],[100.83109238671831,13.70572352502946],[100.78785906227206,13.716421524705277],[100.7479371240212,13.716339956819825],[100.70968024324121,13.717923861192128],[100.70834582231949,13.730748766133916],[100.70980150527303,13.756488618864987],[100.7065812496675,13.756797916387699],[100.71633261731576,13.778121144423787],[100.73341857942688,13.774746393684529],[100.7389084710178,13.777383062908559],[100.73892796083855,13.773766400641733],[100.74638956825805,13.774026533441237],[100.74645178884246,13.777501377420528],[100.76031831724114,13.776120260577146],[100.76869645273402,13.78235428035159],[100.78277285987117,13.781821099189859],[100.78261003367443,13.798824426297505],[100.78853712145445,13.800369834248201],[100.7950194796246,13.79402066015711],[100.79387018097323,13.783846343953662],[100.81476354389686,13.784218435833568],[100.83220036260848,13.76750543501]]]}},{"type":"Feature","properties":{"province":"กรุงเทพมหานคร","district":"ยานนาวา","district_en":"Yan Nawa","zone":"MNM-AREA1 (Bangkok-ST2)","cx":100.53928,"cy":13.69347},"geometry":{"type":"Polygon","coordinates":[[[100.53729990002863,13.669340058411347],[100.52829493613153,13.673447645789757],[100.51763482670133,13.682326604612433],[100.53143872779634,13.699020988761834],[100.52870750044072,13.705928147171672],[100.53748100355762,13.707099717575543],[100.54376180540116,13.707043638729084],[100.54183384225773,13.710632980760854],[100.54907202087036,13.719269975725544],[100.55383375168026,13.716557670438617],[100.55496707736174,13.705864989781086],[100.55119206423,13.7018142348481],[100.55072912175741,13.699595730231598],[100.55260844332541,13.687920993236743],[100.55133306921594,13.679514521835799],[100.54991717427995,13.675840991796983],[100.5464184179269,13.671621144566432],[100.53729990002863,13.669340058411347]]]}},{"type":"Feature","properties":{"province":"กรุงเทพมหานคร","district":"ป้อมปราบศัตรูพ่าย","district_en":"Pom Prap Sattru Phai","zone":"MNM-AREA1 (Bangkok-ST2)","cx":100.51079,"cy":13.74998},"geometry":{"type":"Polygon","coordinates":[[[100.51571841827693,13.738024579367826],[100.5039252422492,13.746814150067495],[100.50573606312567,13.756234618305726],[100.50941651432345,13.763704649983602],[100.51643755726772,13.756646965910967],[100.51740914994066,13.753151782905217],[100.51571841827693,13.738024579367826]]]}},{"type":"Feature","properties":{"province":"กรุงเทพมหานคร","district":"พระโขนง","district_en":"Phra Khanong","zone":"MNM-AREA2 (Bangkok-ONT)","cx":100.61083,"cy":13.69374},"geometry":{"type":"Polygon","coordinates":[[[100.63222925064252,13.70471969815145],[100.63410871909166,13.700682684706937],[100.64026762361861,13.677851330551308],[100.62593676673104,13.678305093680523],[100.62436215127711,13.684503765419125],[100.60029373454891,13.679943172385787],[100.58883336473359,13.683042754590891],[100.58937525570359,13.686244834714078],[100.588010098109,13.69074379800038],[100.58334232956157,13.696735034211404],[100.60576036274651,13.706568592162435],[100.63222925064252,13.70471969815145]]]}},{"type":"Feature","properties":{"province":"นนทบุรี","district":"บางบัวทอง","district_en":"Bang Bua Thong","zone":"MNM-AREA3 (Bangkok-TLC)","cx":100.39256,"cy":13.93217},"geometry":{"type":"Polygon","coordinates":[[[100.44811345386611,13.89731276686658],[100.44937346641666,13.88835501693368],[100.44764074082558,13.867085044200657],[100.437925979822,13.8711276656066],[100.4281162832345,13.862544379874814],[100.42134011004214,13.866884445083016],[100.41625147781872,13.877769468064967],[100.39811291208447,13.885532775624853],[100.39015111695322,13.89696150007832],[100.37980256033536,13.898397632859464],[100.37228800623235,13.910862927140897],[100.36874149070412,13.909904291404711],[100.36248264885488,13.881191512626172],[100.35891729809268,13.87870166839911],[100.34108334933,13.883227447874248],[100.33084589805888,13.921299733759735],[100.33900095044935,13.928718641346729],[100.35091675688187,13.94205557556777],[100.35647173936366,13.949574070059551],[100.3499317411102,13.95381396441157],[100.35517214682292,13.962395254324077],[100.35608062954083,13.977361238697114],[100.35069237071747,13.99557597482491],[100.35658533738426,13.99970478473689],[100.36482047791175,13.990940864537183],[100.38547062023892,13.987633965437368],[100.38087298984736,13.99447158522831],[100.41128467989539,13.986580154824924],[100.45088259280583,13.948039636855567],[100.44362269916334,13.935630866135815],[100.44100600487569,13.92034806241457],[100.44561097852102,13.919478993518748],[100.43931027873174,13.899133184187594],[100.44811345386611,13.89731276686658]]]}},{"type":"Feature","properties":{"province":"นนทบุรี","district":"ไทรน้อย","district_en":"Sai Noi","zone":"MNM-AREA3 (Bangkok-TLC)","cx":100.30862,"cy":14.01269},"geometry":{"type":"Polygon","coordinates":[[[100.33084589805888,13.921299733759735],[100.34108334933,13.883227447874248],[100.32209162991542,13.8849468169942],[100.32179321107687,13.876882507047473],[100.31850093416772,13.876380482760133],[100.30176001157055,13.878779913960596],[100.2965107979979,13.869654739329405],[100.27490264085624,13.914085251045613],[100.26419265331303,13.920994551299009],[100.27433214438688,13.93484769670413],[100.29805135156356,13.962865129438374],[100.27524064274397,13.980997047525202],[100.26225157471262,13.998094187065941],[100.26676450055574,14.00162114923145],[100.26312399300808,14.003680936406317],[100.2718607343106,14.028458099306334],[100.27623827457363,14.02170137278438],[100.2670720012429,14.044576751518825],[100.264159904183,14.059787173619082],[100.27136396690722,14.06638699844412],[100.27726263567607,14.101306691818126],[100.27987792166482,14.12535151014754],[100.29714373152116,14.139975956528161],[100.30851690585513,14.13578648409537],[100.33385104727928,14.128527305367786],[100.34422506562898,14.115601480771785],[100.33190185090214,14.056479610623352],[100.35658533738426,13.99970478473689],[100.35069237071747,13.99557597482491],[100.35608062954083,13.977361238697114],[100.35517214682292,13.962395254324077],[100.3499317411102,13.95381396441157],[100.35647173936366,13.949574070059551],[100.35091675688187,13.94205557556777],[100.33900095044935,13.928718641346729],[100.33084589805888,13.921299733759735]]]}},{"type":"Feature","properties":{"province":"นนทบุรี","district":"บางกรวย","district_en":"Bang Kruai","zone":"MNM-AREA3 (Bangkok-TLC)","cx":100.40708,"cy":13.81152},"geometry":{"type":"Polygon","coordinates":[[[100.4941656416737,13.798266195963889],[100.46609545865006,13.788785524045743],[100.46558531612779,13.789480089567295],[100.46964453731107,13.794569983873268],[100.46422346458218,13.797186512585244],[100.40853402588935,13.801761760315799],[100.32788911328558,13.804213156775479],[100.31908013729637,13.822614144776828],[100.32819146041656,13.825745948982297],[100.34872895852025,13.823920838852139],[100.3496111269138,13.816971060084812],[100.3675797220831,13.815400375362014],[100.39832428669983,13.83310784602799],[100.40308997884691,13.824081556511095],[100.42451274259928,13.837032869528581],[100.42742224976476,13.834101786322215],[100.43898179273711,13.827790103093243],[100.4591185286211,13.829724257175311],[100.46732781135891,13.824267388327304],[100.47349567378936,13.831554677195015],[100.48117445783792,13.823261032209953],[100.4911772569869,13.80959156759064],[100.50240612928145,13.81857157342805],[100.50716507021278,13.8160226688793],[100.51514157464415,13.813458367082786],[100.4941656416737,13.798266195963889]]]}},{"type":"Feature","properties":{"province":"นนทบุรี","district":"บางใหญ่","district_en":"Bang Yai","zone":"MNM-AREA3 (Bangkok-TLC)","cx":100.36289,"cy":13.86365},"geometry":{"type":"Polygon","coordinates":[[[100.42451274259928,13.837032869528581],[100.40308997884691,13.824081556511095],[100.39832428669983,13.83310784602799],[100.3675797220831,13.815400375362014],[100.3496111269138,13.816971060084812],[100.34872895852025,13.823920838852139],[100.32819146041656,13.825745948982297],[100.31908013729637,13.822614144776828],[100.2965107979979,13.869654739329405],[100.30176001157055,13.878779913960596],[100.31850093416772,13.876380482760133],[100.32179321107687,13.876882507047473],[100.32209162991542,13.8849468169942],[100.34108334933,13.883227447874248],[100.35891729809268,13.87870166839911],[100.36248264885488,13.881191512626172],[100.36874149070412,13.909904291404711],[100.37228800623235,13.910862927140897],[100.37980256033536,13.898397632859464],[100.39015111695322,13.89696150007832],[100.39811291208447,13.885532775624853],[100.41625147781872,13.877769468064967],[100.42134011004214,13.866884445083016],[100.4281162832345,13.862544379874814],[100.437925979822,13.8711276656066],[100.44764074082558,13.867085044200657],[100.44790960037544,13.864747856112666],[100.4409853803903,13.857215812174738],[100.44372253469348,13.845661781562836],[100.42742224976476,13.834101786322215],[100.42451274259928,13.837032869528581]]]}},{"type":"Feature","properties":{"province":"นนทบุรี","district":"เมืองนนทบุรี","district_en":"Mueang Nonthaburi","zone":"MNM-AREA4 (Bangkok-CWT)","cx":100.49304,"cy":13.85361},"geometry":{"type":"Polygon","coordinates":[[[100.50240612928145,13.81857157342805],[100.4911772569869,13.80959156759064],[100.48117445783792,13.823261032209953],[100.47349567378936,13.831554677195015],[100.46732781135891,13.824267388327304],[100.4591185286211,13.829724257175311],[100.43898179273711,13.827790103093243],[100.42742224976476,13.834101786322215],[100.44372253469348,13.845661781562836],[100.4409853803903,13.857215812174738],[100.44790960037544,13.864747856112666],[100.44764074082558,13.867085044200657],[100.44937346641666,13.88835501693368],[100.46201312633748,13.891413021815984],[100.47512360306551,13.891239283834249],[100.484672250151,13.88535552998723],[100.49054719285733,13.893863120414446],[100.49850568931461,13.894898011872998],[100.54956847659118,13.87815295898192],[100.54863340426067,13.871243848371797],[100.54335244969856,13.850000042039447],[100.51338761516381,13.82510283840374],[100.50872559374372,13.82350446504832],[100.50661936526772,13.821335525937588],[100.5070987833164,13.819650127302667],[100.50651192991312,13.817213097014356],[100.50716507021278,13.8160226688793],[100.50240612928145,13.81857157342805]]]}},{"type":"Feature","properties":{"province":"นนทบุรี","district":"ปากเกร็ด","district_en":"Pak Kret","zone":"MNM-AREA3 (Bangkok-TLC)","cx":100.50216,"cy":13.92799},"geometry":{"type":"Polygon","coordinates":[[[100.56779977320602,13.951250998161566],[100.54956847659118,13.87815295898192],[100.49850568931461,13.894898011872998],[100.49054719285733,13.893863120414446],[100.484672250151,13.88535552998723],[100.47512360306551,13.891239283834249],[100.46201312633748,13.891413021815984],[100.44937346641666,13.88835501693368],[100.44811345386611,13.89731276686658],[100.43931027873174,13.899133184187594],[100.44561097852102,13.919478993518748],[100.44100600487569,13.92034806241457],[100.44362269916334,13.935630866135815],[100.45088259280583,13.948039636855567],[100.41128467989539,13.986580154824924],[100.43479841337945,13.980660399416434],[100.45370554436808,13.966788748315594],[100.45910259184295,13.97150099071152],[100.46477991819495,13.971280392677585],[100.4889602141339,13.9451769228141],[100.50125310599039,13.93691517915104],[100.50980418718298,13.94398979281677],[100.52405429276939,13.94351455977815],[100.53455107924702,13.94701457437016],[100.5401233264581,13.955841146770812],[100.55698637002308,13.949957796243156],[100.56779977320602,13.951250998161566]]]}},{"type":"Feature","properties":{"province":"ปทุมธานี","district":"ธัญบุรี","district_en":"Thanyaburi","zone":"MNM-AREA4 (Bangkok-CWT)","cx":100.78313,"cy":14.03651},"geometry":{"type":"Polygon","coordinates":[[[100.60574883371524,13.964726814248879],[100.60160817385722,13.99592481288942],[100.65316748302831,14.006364330120794],[100.6757803790406,14.008850587777216],[100.69841181792523,14.018150706693703],[100.75589494352737,14.04340602948735],[100.91427712610786,14.099312064833462],[100.91423787720217,14.067372739579183],[100.80006501986608,14.027421711714396],[100.80022625564176,14.029622406980426],[100.7064508051243,13.994212312871236],[100.69613404023242,13.986619997385208],[100.66338523656594,13.980922929797337],[100.60574883371524,13.964726814248879]]]}},{"type":"Feature","properties":{"province":"ปทุมธานี","district":"หนองเสือ","district_en":"Nong Suea","zone":"MNM-AREA4 (Bangkok-CWT)","cx":100.8348,"cy":14.15514},"geometry":{"type":"Polygon","coordinates":[[[100.91427712610786,14.099312064833462],[100.75589494352737,14.04340602948735],[100.75502707897844,14.210966613346148],[100.82306347105944,14.243899907913509],[100.84596706800373,14.253707135849986],[100.89165215259214,14.275469563388548],[100.89232824935412,14.24370197582846],[100.95171817846389,14.272146155923732],[100.94552667157137,14.24894174881106],[100.94672673538595,14.23657297806346],[100.91428771837226,14.22117918841924],[100.91427712610786,14.099312064833462]]]}},{"type":"Feature","properties":{"province":"ปทุมธานี","district":"เมืองปทุมธานี","district_en":"Mueang Pathum Thani","zone":"MNM-AREA4 (Bangkok-CWT)","cx":100.52902,"cy":14.0038},"geometry":{"type":"Polygon","coordinates":[[[100.59672648467837,14.032845897107393],[100.60820104785728,13.94254269507048],[100.57657458666004,13.954553421857204],[100.56779049568975,13.95124766832041],[100.55698637002308,13.949957796243156],[100.5401233264581,13.955841146770812],[100.53455107924702,13.94701457437016],[100.52405429276939,13.94351455977815],[100.50980418718298,13.94398979281677],[100.50125310599039,13.93691517915104],[100.4889602141339,13.9451769228141],[100.46477991819495,13.971280392677585],[100.45910259184295,13.97150099071152],[100.46645466967833,13.976847614110818],[100.46780298418003,13.984294725599423],[100.46857650707176,13.997513563708718],[100.44667998216799,14.01007894086528],[100.45798915134958,14.027969110821378],[100.47882399744435,14.01871412308983],[100.48672167527066,14.018796847634253],[100.49576469149865,14.038913451218038],[100.49474180330465,14.047959044667824],[100.52332053156103,14.031719187963889],[100.54352801361321,14.029878242029154],[100.5455040717858,14.032813506121025],[100.55609916832853,14.04104910234032],[100.56429695672159,14.03752297941896],[100.57964584857164,14.040315708522067],[100.58646253655137,14.04604244727705],[100.58530158732492,14.074510225440543],[100.58998499819528,14.074204859083142],[100.59672648467837,14.032845897107393]]]}},{"type":"Feature","properties":{"province":"ปทุมธานี","district":"คลองหลวง","district_en":"Khlong Luang","zone":"MNM-AREA4 (Bangkok-CWT)","cx":100.67179,"cy":14.08539},"geometry":{"type":"Polygon","coordinates":[[[100.65316748302831,14.006364330120794],[100.60160817385722,13.99592481288942],[100.59672648467837,14.032845897107393],[100.58085573015751,14.127375190116048],[100.60711555851469,14.135572192383723],[100.61986381175906,14.129253284918146],[100.61995648237054,14.142593826031701],[100.6988833012729,14.183815114437877],[100.75502707897844,14.210966613346148],[100.75589494352737,14.04340602948735],[100.69841181792523,14.018150706693703],[100.6757803790406,14.008850587777216],[100.65316748302831,14.006364330120794]]]}},{"type":"Feature","properties":{"province":"ปทุมธานี","district":"สามโคก","district_en":"Sam Khok","zone":"MNM-AREA3 (Bangkok-TLC)","cx":100.52588,"cy":14.08114},"geometry":{"type":"Polygon","coordinates":[[[100.55609916832853,14.04104910234032],[100.5455040717858,14.032813506121025],[100.54352801361321,14.029878242029154],[100.52332053156103,14.031719187963889],[100.49474180330465,14.047959044667824],[100.48100360237515,14.06004893347231],[100.4802226110492,14.070712193867731],[100.45198305949782,14.087774950518808],[100.42361833908235,14.10001744723301],[100.42194670781086,14.114226090449725],[100.4300825805645,14.114264898708198],[100.45622220277883,14.116864063675791],[100.46623105267719,14.111971777650785],[100.48153692617883,14.112069031008096],[100.49502326708496,14.115260118933815],[100.51719111779,14.129439396909314],[100.52807913445663,14.120770893188176],[100.54109212732084,14.116879070005634],[100.55000871098078,14.110682057574625],[100.5538508521952,14.111160087180698],[100.55243730816215,14.117913433913525],[100.58085573015751,14.127375190116048],[100.58998499819528,14.074204859083142],[100.58530158732492,14.074510225440543],[100.58646253655137,14.04604244727705],[100.57964584857164,14.040315708522067],[100.56429695672159,14.03752297941896],[100.55609916832853,14.04104910234032]]]}},{"type":"Feature","properties":{"province":"ปทุมธานี","district":"ลาดหลุมแก้ว","district_en":"Lat Lum Kaeo","zone":"MNM-AREA3 (Bangkok-TLC)","cx":100.41183,"cy":14.05222},"geometry":{"type":"Polygon","coordinates":[[[100.45370554436808,13.966788748315594],[100.43479841337945,13.980660399416434],[100.38087298984736,13.99447158522831],[100.38547062023892,13.987633965437368],[100.36482047791175,13.990940864537183],[100.35658533738426,13.99970478473689],[100.33190185090214,14.056479610623352],[100.34422506562898,14.115601480771785],[100.38283887052249,14.11511607619146],[100.38311409258972,14.132994836482448],[100.39407971299461,14.131842238148755],[100.39340605794003,14.121409959137106],[100.39827483704721,14.114982835958843],[100.42194670781086,14.114226090449725],[100.42361833908235,14.10001744723301],[100.45198305949782,14.087774950518808],[100.4802226110492,14.070712193867731],[100.48100360237515,14.06004893347231],[100.49474180330465,14.047959044667824],[100.49576469149865,14.038913451218038],[100.48672167527066,14.018796847634253],[100.47882399744435,14.01871412308983],[100.45798915134958,14.027969110821378],[100.44667998216799,14.01007894086528],[100.46857650707176,13.997513563708718],[100.46780298418003,13.984294725599423],[100.46645466967833,13.976847614110818],[100.45370554436808,13.966788748315594]]]}},{"type":"Feature","properties":{"province":"ปทุมธานี","district":"ลำลูกกา","district_en":"Lam Luk Ka","zone":"MNM-AREA4 (Bangkok-CWT)","cx":100.80749,"cy":13.99042},"geometry":{"type":"Polygon","coordinates":[[[100.72983476562132,13.9178122874461],[100.68760015223191,13.917602115570585],[100.68791904071085,13.92297335936016],[100.69017816462322,13.92863958731098],[100.69017094308501,13.930430407890812],[100.66299280565455,13.930866350948497],[100.63988634483201,13.932009009934312],[100.64002104919088,13.934213567988717],[100.62530037812726,13.936574216842674],[100.62351435356443,13.947253103093338],[100.62292868245528,13.948035480249839],[100.60692177505969,13.95401361214272],[100.60574883371524,13.964726814248879],[100.66338523656594,13.980922929797337],[100.69613404023242,13.986619997385208],[100.7064508051243,13.994212312871236],[100.80022625564176,14.029622406980426],[100.80006501986608,14.027421711714396],[100.91423787720217,14.067372739579183],[100.91346443605174,13.961011671575951],[100.91241982642208,13.945398230982855],[100.83950969306005,13.936108932747512],[100.79301399369477,13.928879501359285],[100.74704230313618,13.917325142869926],[100.72983476562132,13.9178122874461]]]}}]}