{"type":"FeatureCollection","source":"District boundaries: github.com/chingchai/OpenGISData-Thailand · zone = majority MNM-AREA of 2026 jobs inside each district","features":[{"type":"Feature","properties":{"zone":"MNM-AREA1 (Bangkok-ST2)","area":"A1","name":"SCT","cx":100.54432,"cy":13.76475},"geometry":{"type":"Polygon","coordinates":[[[100.48831055501005,13.74830215281206],[100.48936799060907,13.75997348920619],[100.49483674717398,13.765491630124261],[100.50579694209762,13.786937861286509],[100.51652012918395,13.800446640198691],[100.5151411632473,13.81338471894406],[100.50716522125651,13.81602285188267],[100.5066196127628,13.821335463585097],[100.50872571403276,13.82350427537387],[100.51330264362092,13.825082391166946],[100.54379428398016,13.84990890614758],[100.56336752709989,13.855129062448446],[100.58641867692197,13.85893314224392],[100.58994767673703,13.843878494089534],[100.61893192910671,13.848524377338489],[100.62874716800167,13.842691390446914],[100.63631738670206,13.844091613399204],[100.61204148512617,13.794871996365053],[100.60571472917752,13.795160847637474],[100.60250477136107,13.800261196110537],[100.5883801370679,13.802594891785208],[100.59466840236306,13.76400506252492],[100.60405489948782,13.751030450668212],[100.60106010743681,13.748123293974329],[100.59790007769215,13.741065507781563],[100.56316402637114,13.74780675304287],[100.55023973708535,13.748203523888487],[100.55496684650883,13.705865066870592],[100.55120792089406,13.701826431881942],[100.55073375835515,13.699613869030268],[100.55260817471707,13.687920992022775],[100.55133278355297,13.679514597591252],[100.54991692071438,13.67584114038769],[100.5464182642017,13.67162138876262],[100.53729552502725,13.669342054055159],[100.52829503371687,13.673447817498285],[100.51763284600908,13.682322903440737],[100.50025515620845,13.68682589814047],[100.49004747362969,13.694929140996585],[100.49867390687152,13.705171633639612],[100.50782735588157,13.71202296441513],[100.51206425242115,13.719381616204707],[100.51237486903467,13.729157765260952],[100.50922274804726,13.735398847075883],[100.50652133903387,13.737029220159634],[100.49347746133164,13.740837263020087],[100.48831055501005,13.74830215281206]]]}},{"type":"Feature","properties":{"zone":"MNM-AREA2 (Bangkok-ONT)","area":"A2","name":"ONT","cx":100.71126,"cy":13.72351},"geometry":{"type":"Polygon","coordinates":[[[100.55019472966475,13.748322832498323],[100.56316407652024,13.747807184442518],[100.59792124163054,13.741147786162031],[100.6010674714324,13.748141385658883],[100.60406122467282,13.75098253011112],[100.59467240012911,13.763976600943929],[100.58836887782168,13.80276642955793],[100.60255670350776,13.800255322141576],[100.60572780550808,13.795183125127467],[100.6119970241427,13.794889864603514],[100.62357976253055,13.817217874738066],[100.63134671790193,13.819210205635702],[100.64265141508528,13.786957119958846],[100.64823308709558,13.784674161249855],[100.6562802831761,13.77069029755204],[100.70487464131115,13.79748672654451],[100.6967143120826,13.815419465436413],[100.71543506887639,13.821905048680891],[100.71466176282821,13.830457974482051],[100.72014998091753,13.830529162712395],[100.72015204188256,13.836527631784499],[100.7225031048594,13.830919175891507],[100.72962435159536,13.831035132150259],[100.72957687685195,13.836577338072173],[100.74334445897426,13.835365860055004],[100.74938584657339,13.822077531438099],[100.79938393178426,13.849354085736932],[100.78831692239943,13.880289675987898],[100.79573982171064,13.890194541634969],[100.79284468625507,13.89396188786358],[100.7925136622,13.928765502353334],[100.83951109543077,13.936109111420066],[100.91241959260624,13.94539796430113],[100.91246041599899,13.936023927475539],[100.90610166929254,13.880301000447545],[100.90603277265612,13.862756373246492],[100.90462389377767,13.848640302431022],[100.91280224138403,13.846300933268743],[100.90742403900525,13.838455966618955],[100.93795751491866,13.814649209635737],[100.9305968804416,13.804825902771693],[100.90718104659408,13.786701444542581],[100.85582523178488,13.700498523813188],[100.8877902403409,13.686705506981554],[100.95547604691953,13.662844674521073],[100.95415185532403,13.65976086709811],[100.95364817863185,13.649669334893268],[100.96267170390674,13.6448539468629],[100.9599324707251,13.633225675427349],[100.92334703678746,13.593753033786461],[100.90704909937267,13.591661069810721],[100.9070419021133,13.581172744176945],[100.91486888806068,13.571348938197797],[100.90368445432337,13.55473285802034],[100.89010977912069,13.564460373704307],[100.87934321864422,13.545750668870937],[100.87245845391921,13.523607563327097],[100.87184313074577,13.49058727365528],[100.85179033772594,13.48418749574844],[100.84788783241588,13.478093397816696],[100.78029848735126,13.491646582359534],[100.71594835967814,13.500801475277745],[100.63179890712895,13.521360182705369],[100.61808426320509,13.533397563625025],[100.61252173918014,13.526640874284222],[100.59042937360134,13.54300754778995],[100.57793485875848,13.559717765531614],[100.58276734017267,13.58118353374981],[100.58869152408145,13.589603841331112],[100.59153464191762,13.60369895533793],[100.58622444475081,13.610507217577602],[100.57127540719576,13.61113811604651],[100.55129222410775,13.619269979026035],[100.56939966622373,13.63675435623879],[100.57353869827956,13.633432361071206],[100.58729678785248,13.631740550351784],[100.5930138212011,13.64882497109304],[100.59190983524279,13.664263891494315],[100.57933170826595,13.668260191069585],[100.58882950091348,13.68304425083479],[100.58936900377168,13.686253697666709],[100.58799787491596,13.690758116208698],[100.58334031812865,13.696732818002754],[100.5794329097007,13.699211272234713],[100.57170729154657,13.702668716347594],[100.55496728693537,13.70586518412299],[100.55019472966475,13.748322832498323]]]}},{"type":"Feature","properties":{"zone":"MNM-AREA3 (Bangkok-TLC)","area":"A3","name":"TLC","cx":100.40445,"cy":13.81601},"geometry":{"type":"Polygon","coordinates":[[[100.26225188973649,13.998094146244366],[100.26659549240496,14.001531836761517],[100.26312428436611,14.003681045559953],[100.27186079130225,14.028457618327547],[100.2754859838571,14.023515191704034],[100.26707222243425,14.044576816356065],[100.26416017851002,14.05978708271332],[100.27137138527834,14.066436277104698],[100.27726165267866,14.101300872544465],[100.27987813226119,14.125351398307432],[100.2971437766858,14.139975700950123],[100.30852401128213,14.13578444812487],[100.33385089676301,14.128527078990343],[100.34431944815834,14.115600294312378],[100.38271604091601,14.115132791584015],[100.38311431529148,14.132994585284436],[100.39407948097671,14.131842042408017],[100.39341622029181,14.121423640821963],[100.3983310577015,14.114984944203297],[100.43007313985326,14.114264853675836],[100.45622216410476,14.116863848418761],[100.46627798570958,14.111972075862774],[100.48153677334582,14.112070305482863],[100.49501169632197,14.11525867422987],[100.5171911037804,14.129439126006828],[100.52808084801622,14.12077417263032],[100.54109200569903,14.116878817574408],[100.54998238701509,14.110705647647666],[100.55363528327007,14.11113326663387],[100.5524375705278,14.117913283158725],[100.5808555590569,14.127374904468251],[100.58998471395364,14.074205114961098],[100.58531292667851,14.074327352049625],[100.58645865280606,14.046039184520291],[100.5796457316299,14.040315957340452],[100.5643017636853,14.037523854045451],[100.5560563720337,14.041005187580398],[100.54551335927711,14.032819307737771],[100.54352789897723,14.029878483204032],[100.523320617417,14.031719461823476],[100.49492879242695,14.047783011168844],[100.49576440209654,14.038913496417363],[100.4867215333563,14.018797064523683],[100.47882405624644,14.018714407647026],[100.4580169723092,14.02791011407905],[100.446763137831,14.010180444031723],[100.46857625222911,13.997513425911254],[100.4664544291965,13.976847758576719],[100.46004202472092,13.97153657606281],[100.46477981142161,13.97128016061815],[100.48896109295495,13.945177950067496],[100.50114603560343,13.936988310932053],[100.50980427802233,13.943989526679193],[100.52405383335955,13.94351772240154],[100.53450159718444,13.946999086311587],[100.54012341993658,13.95584087910645],[100.55697792570466,13.949964236521742],[100.56779948424013,13.951250743334855],[100.54956831877075,13.878153244638943],[100.4985140763607,13.894891918110995],[100.49054921108994,13.893841961935111],[100.48467218075851,13.885355860249083],[100.47508986589018,13.891238569914039],[100.46202162203026,13.891412211644797],[100.44949555644146,13.888383601314716],[100.44790936767862,13.864747931788163],[100.44100695101477,13.857190038358542],[100.4437222674931,13.845661882338788],[100.42759913996076,13.83412180948399],[100.43898363990249,13.827799122273156],[100.45911846833965,13.829724016529521],[100.46726991745854,13.824333569455279],[100.4734956816745,13.831554323100383],[100.48117786015159,13.823256382730772],[100.49116917976033,13.809683554274086],[100.50240615433218,13.818571300188998],[100.51514124380576,13.813458223953177],[100.51653541852349,13.800442200630753],[100.50579359961084,13.786932319715985],[100.4948326872326,13.76548300911782],[100.4893847803636,13.759988099081507],[100.48831537569552,13.748346119587447],[100.49347964601718,13.740840780988687],[100.50653157973082,13.737027507778159],[100.50925628702406,13.735379324447424],[100.51237658887861,13.729188655125203],[100.51206752193026,13.719370461602642],[100.50781761220392,13.712004529185622],[100.49867458705637,13.705170912635458],[100.49019336922879,13.694814295205045],[100.50024881042728,13.68683547210386],[100.51763469498061,13.682326333629769],[100.52828788770461,13.6734553507362],[100.53731057780654,13.66935124782136],[100.54639441303442,13.671619717863988],[100.54992009153554,13.675851807890155],[100.55260579341558,13.687910646780237],[100.5507300547462,13.69960020128373],[100.55119225179227,13.70181413768949],[100.55496716540131,13.705864720526495],[100.57170759750484,13.702669688968195],[100.5794425493169,13.69920695637609],[100.5836852639317,13.69645248797116],[100.58794055971171,13.69085248171407],[100.58940865636481,13.685577975718651],[100.58866110399849,13.68239429169964],[100.57944451306678,13.66837125336714],[100.5919310627356,13.664306023214468],[100.59301593943782,13.648805008917213],[100.58731186855233,13.631679724204998],[100.57351844087273,13.633431735331493],[100.56935516174813,13.636680107880975],[100.55143225122012,13.619348986007179],[100.57127600685547,13.611140874783626],[100.58626041975812,13.610513858214631],[100.59157967124432,13.603641910685864],[100.58869522303705,13.589602242064098],[100.58276363008437,13.581163766142192],[100.5779500576855,13.559769592223002],[100.59042894811864,13.543007361245406],[100.57852578888625,13.521010090917422],[100.55805567358635,13.506322847677822],[100.50155279421337,13.500715977440521],[100.49056664115577,13.494942085015776],[100.46560356184769,13.492059586043965],[100.45785739173043,13.486989459546521],[100.4106790785977,13.491494721773256],[100.40657781869261,13.50617324539597],[100.40644372033167,13.519043725487649],[100.40757977258566,13.525796989488194],[100.40706243819677,13.535275484355378],[100.41599197851394,13.539783583033435],[100.41911330575788,13.543068905231998],[100.41946909100932,13.545982727482766],[100.41560632757101,13.55171079047783],[100.414930572789,13.556274747868601],[100.4000503775739,13.55274339566419],[100.39401982353394,13.556667243196069],[100.39092903359246,13.568452504901684],[100.38628193803008,13.575213651932465],[100.38657273443461,13.577387010205994],[100.38520078110702,13.580389537194627],[100.385484151999,13.585785700115226],[100.3844414048394,13.588801343988326],[100.37885751120041,13.594425227715055],[100.37941672004025,13.609428014464218],[100.37744716713605,13.620673757949387],[100.37201507399465,13.620858459334247],[100.3717669567544,13.624504868455494],[100.3673990062241,13.629562399828002],[100.36648064498091,13.633827643500455],[100.35500027950141,13.63763546397643],[100.35474101639868,13.638599963825277],[100.34627659595368,13.639917786735948],[100.34468231437047,13.642473954690619],[100.34503199303785,13.653366198296267],[100.34429238458178,13.654697967277615],[100.33948450369198,13.654875827370706],[100.33940309723911,13.657338256499425],[100.34121262967105,13.661478817044058],[100.33846036776794,13.672714350132194],[100.3337553678597,13.680856124221842],[100.33074065114843,13.697895867707228],[100.33079547515081,13.699518187615634],[100.33555750673271,13.70547864000529],[100.33739228123105,13.715514025198008],[100.33561419687555,13.725560807475011],[100.33624912897669,13.726752831023118],[100.33528817733006,13.730777972265711],[100.33492318820315,13.736888887927286],[100.33564327762586,13.738208844047474],[100.3343975609571,13.75241071268916],[100.33336799041423,13.752880502905358],[100.33290280547196,13.757693504322418],[100.3313516417039,13.758743140387743],[100.33068812517546,13.764252148518993],[100.32907164164578,13.764679332098233],[100.33075798459308,13.774633189928624],[100.3309377318433,13.789360771989877],[100.32976845245413,13.80079366262137],[100.27491841489493,13.914050930036016],[100.26419296699348,13.9209946093554],[100.27433442793254,13.934850394057658],[100.29795657751224,13.962895747977093],[100.27524076128762,13.980997173560324],[100.26225188973649,13.998094146244366]]]}},{"type":"Feature","properties":{"zone":"MNM-AREA4 (Bangkok-CWT)","area":"A4","name":"CWT","cx":100.70133,"cy":14.02339},"geometry":{"type":"MultiPolygon","coordinates":[[[[100.42742265677599,13.834101810177641],[100.44368396602287,13.845676327927793],[100.4409856349157,13.857215745722407],[100.44789338315724,13.86476315007057],[100.44937367684042,13.888354837035017],[100.46201315309256,13.89141284926798],[100.47512352011611,13.891238998321239],[100.48464671734838,13.885427832053724],[100.49054731377024,13.893862922256563],[100.49850567487633,13.894897810878115],[100.54954774008999,13.87826634049053],[100.56773712987216,13.95098922000796],[100.55698638798201,13.949958004664579],[100.54016001891637,13.955794198586911],[100.53455092460595,13.947014771676622],[100.52405426418494,13.943514756556269],[100.5098185488647,13.943979744068702],[100.50125309140846,13.93691547215849],[100.48896502701153,13.9451736882],[100.46482214986032,13.97123338715879],[100.4591032181147,13.971501180990199],[100.46645863799984,13.976889889540093],[100.46855786371243,13.997469252258867],[100.4466803213813,14.010079024974628],[100.45798923457966,14.027968836449222],[100.47880423488395,14.018724156264653],[100.48668486334182,14.018818523193184],[100.495749929539,14.038883402971376],[100.49474208006336,14.047958625293955],[100.52332191420699,14.031723598266417],[100.54341008928151,14.029888985194408],[100.54550427756612,14.032813313922219],[100.5560992020669,14.041048838678565],[100.56431745387685,14.037530577207255],[100.57965217548566,14.040326626833572],[100.58645179718235,14.046080319018866],[100.58530182835533,14.074509978468175],[100.58974120642732,14.0744274318264],[100.58085597857009,14.127375037489927],[100.60711553958332,14.135571952651407],[100.61974525813122,14.129390893963668],[100.61996084487318,14.14259610444583],[100.69888469035392,14.183815786206567],[100.82306139016583,14.243898900648427],[100.8459706779516,14.253708855475322],[100.89165192929931,14.275469201208155],[100.89251113183279,14.243816610567356],[100.95171784021495,14.272145748126462],[100.94553215614792,14.248959207944019],[100.9467264679534,14.236573129590882],[100.91428875911105,14.221073199192514],[100.91423787909736,14.067374282035864],[100.91346445769759,13.961014648351957],[100.91241960696931,13.945398437664847],[100.83951242377276,13.936109280660807],[100.79258276505833,13.928748150503473],[100.7928448787036,13.8940111466989],[100.79579198985256,13.890205129034102],[100.78834191702245,13.880245978677554],[100.79951715401309,13.849425898821274],[100.74924963121991,13.821993809267743],[100.74330100157049,13.83535498431366],[100.72974004296604,13.836554448140843],[100.72969929895484,13.830990040985895],[100.72239102667157,13.830917057908103],[100.720267699867,13.8356363396311],[100.72020941369047,13.830470421399681],[100.71469104347935,13.830316365192243],[100.71551849353625,13.821918837074461],[100.6968007725244,13.815371999296213],[100.70499002804269,13.797540479389786],[100.65616165523292,13.77061573529702],[100.6482457231924,13.784644603951568],[100.64267458970807,13.786888937635592],[100.63137994206372,13.819089645770344],[100.62358001042244,13.817218391530224],[100.63606326633594,13.843806250218805],[100.62875490949325,13.842676011304858],[100.61889995034362,13.848515481607455],[100.58984235390851,13.843845654729861],[100.58631294431757,13.858899699097085],[100.56337219400184,13.855129832666622],[100.54305292725743,13.849746239834444],[100.51339110575607,13.82510573866959],[100.50869225096342,13.823470129523432],[100.5066473046269,13.821318667064395],[100.50716454905046,13.816023184808984],[100.50235326320839,13.818518486210372],[100.49117730307876,13.809591914081274],[100.48118126811669,13.82325172552857],[100.4735664696453,13.831442494587625],[100.46732776892165,13.824267687571755],[100.4590867683606,13.829717399654351],[100.43898184370427,13.82779035195133],[100.42742265677599,13.834101810177641]]],[[[100.67519646391658,13.781091373722642],[100.67519657406454,13.781091174213023],[100.67519657379837,13.781091174066336],[100.67519646391658,13.781091373722642]]]]}}]}